<?xml version="1.0" encoding="UTF-8"?>
<TrainingCenterDatabase xmlns="http://www.garmin.com/xmlschemas/TrainingCenterDatabase/v2"
  xmlns:xsi="http://www.w3.org/2001/XMLSchema-instance"
  xsi:schemaLocation="http://www.garmin.com/xmlschemas/TrainingCenterDatabase/v2 http://www.garmin.com/xmlschemas/TrainingCenterDatabasev2.xsd">
  <Activities>
    <Activity Sport="Biking">
      <Id>2026-08-09T17:00:00Z</Id>
      <Lap StartTime="2026-08-09T17:00:00Z">
        <TotalTimeSeconds>900</TotalTimeSeconds>
        <DistanceMeters>6000.0</DistanceMeters>
        <MaximumSpeed>8.5</MaximumSpeed>
        <Calories>210</Calories>
        <AverageHeartRateBpm><Value>125</Value></AverageHeartRateBpm>
        <MaximumHeartRateBpm><Value>138</Value></MaximumHeartRateBpm>
        <Intensity>Active</Intensity>
        <TriggerMethod>Manual</TriggerMethod>
        <Track>
          <Trackpoint>
            <Time>2026-08-09T17:00:00Z</Time>
            <Position><LatitudeDegrees>40.7300</LatitudeDegrees><LongitudeDegrees>-73.9970</LongitudeDegrees></Position>
            <AltitudeMeters>15.0</AltitudeMeters>
            <DistanceMeters>0.0</DistanceMeters>
            <HeartRateBpm><Value>108</Value></HeartRateBpm>
          </Trackpoint>
          <Trackpoint>
            <Time>2026-08-09T17:07:30Z</Time>
            <Position><LatitudeDegrees>40.7480</LatitudeDegrees><LongitudeDegrees>-73.9970</LongitudeDegrees></Position>
            <AltitudeMeters>18.0</AltitudeMeters>
            <DistanceMeters>3000.0</DistanceMeters>
            <HeartRateBpm><Value>128</Value></HeartRateBpm>
          </Trackpoint>
          <Trackpoint>
            <Time>2026-08-09T17:15:00Z</Time>
            <Position><LatitudeDegrees>40.7660</LatitudeDegrees><LongitudeDegrees>-73.9970</LongitudeDegrees></Position>
            <AltitudeMeters>20.0</AltitudeMeters>
            <DistanceMeters>6000.0</DistanceMeters>
            <HeartRateBpm><Value>131</Value></HeartRateBpm>
          </Trackpoint>
        </Track>
      </Lap>
      <Lap StartTime="2026-08-09T17:15:00Z">
        <TotalTimeSeconds>900</TotalTimeSeconds>
        <DistanceMeters>7500.0</DistanceMeters>
        <MaximumSpeed>11.2</MaximumSpeed>
        <Calories>295</Calories>
        <AverageHeartRateBpm><Value>162</Value></AverageHeartRateBpm>
        <MaximumHeartRateBpm><Value>174</Value></MaximumHeartRateBpm>
        <Intensity>Active</Intensity>
        <TriggerMethod>Manual</TriggerMethod>
        <Track>
          <Trackpoint>
            <Time>2026-08-09T17:15:00Z</Time>
            <Position><LatitudeDegrees>40.7660</LatitudeDegrees><LongitudeDegrees>-73.9970</LongitudeDegrees></Position>
            <AltitudeMeters>20.0</AltitudeMeters>
            <DistanceMeters>6000.0</DistanceMeters>
            <HeartRateBpm><Value>150</Value></HeartRateBpm>
          </Trackpoint>
          <Trackpoint>
            <Time>2026-08-09T17:22:30Z</Time>
            <Position><LatitudeDegrees>40.7850</LatitudeDegrees><LongitudeDegrees>-73.9970</LongitudeDegrees></Position>
            <AltitudeMeters>24.0</AltitudeMeters>
            <DistanceMeters>9750.0</DistanceMeters>
            <HeartRateBpm><Value>165</Value></HeartRateBpm>
          </Trackpoint>
          <Trackpoint>
            <Time>2026-08-09T17:30:00Z</Time>
            <Position><LatitudeDegrees>40.8040</LatitudeDegrees><LongitudeDegrees>-73.9970</LongitudeDegrees></Position>
            <AltitudeMeters>22.0</AltitudeMeters>
            <DistanceMeters>13500.0</DistanceMeters>
            <HeartRateBpm><Value>168</Value></HeartRateBpm>
          </Trackpoint>
        </Track>
      </Lap>
      <Lap StartTime="2026-08-09T17:30:00Z">
        <TotalTimeSeconds>900</TotalTimeSeconds>
        <DistanceMeters>7000.0</DistanceMeters>
        <MaximumSpeed>10.4</MaximumSpeed>
        <Calories>270</Calories>
        <AverageHeartRateBpm><Value>158</Value></AverageHeartRateBpm>
        <MaximumHeartRateBpm><Value>170</Value></MaximumHeartRateBpm>
        <Intensity>Active</Intensity>
        <TriggerMethod>Manual</TriggerMethod>
        <Track>
          <Trackpoint>
            <Time>2026-08-09T17:30:00Z</Time>
            <Position><LatitudeDegrees>40.8040</LatitudeDegrees><LongitudeDegrees>-73.9970</LongitudeDegrees></Position>
            <AltitudeMeters>22.0</AltitudeMeters>
            <DistanceMeters>13500.0</DistanceMeters>
            <HeartRateBpm><Value>160</Value></HeartRateBpm>
          </Trackpoint>
          <Trackpoint>
            <Time>2026-08-09T17:37:30Z</Time>
            <Position><LatitudeDegrees>40.8210</LatitudeDegrees><LongitudeDegrees>-73.9970</LongitudeDegrees></Position>
            <AltitudeMeters>19.0</AltitudeMeters>
            <DistanceMeters>17000.0</DistanceMeters>
            <HeartRateBpm><Value>157</Value></HeartRateBpm>
          </Trackpoint>
          <Trackpoint>
            <Time>2026-08-09T17:45:00Z</Time>
            <Position><LatitudeDegrees>40.8380</LatitudeDegrees><LongitudeDegrees>-73.9970</LongitudeDegrees></Position>
            <AltitudeMeters>17.0</AltitudeMeters>
            <DistanceMeters>20500.0</DistanceMeters>
            <HeartRateBpm><Value>154</Value></HeartRateBpm>
          </Trackpoint>
        </Track>
      </Lap>
    </Activity>
  </Activities>
</TrainingCenterDatabase>
